CTC1_L_00395001-01
1 10000U 26289AH  26075.70034722  .00000000  00000+0  00000-0 0  9992
2 10000 100.0000   0.0000 0000000   0.0000   0.0000 13.03091871    18
CTC1_L_00395001-02
1 10001U 23613TY  26075.70034722  .00000000  00000+0  00000-0 0  9991
2 10001 100.0000   0.0000 0000000   0.0000  90.0000 13.03091871    18
CTC1_L_00395001-03
1 10002U 25180PY  26075.70034722  .00000000  00000+0  00000-0 0  9993
2 10002 100.0000   0.0000 0000000   0.0000 180.0000 13.03091871    19
CTC1_L_00395001-04
1 10003U 26105NZ  26075.70034722  .00000000  00000+0  00000-0 0  9992
2 10003 100.0000   0.0000 0000000   0.0000 270.0000 13.03091871    10
CTC1_L_00395002-01
1 10004U 23764BZ  26075.70034722  .00000000  00000+0  00000-0 0  9991
2 10004 100.0000  12.0000 0000000   0.0000  12.0000 13.03091871    18
CTC1_L_00395002-02
1 10005U 25562VA  26075.70034722  .00000000  00000+0  00000-0 0  9990
2 10005 100.0000  12.0000 0000000   0.0000 102.0000 13.03091871    19
CTC1_L_00395002-03
1 10006U 26161JI  26075.70034722  .00000000  00000+0  00000-0 0  9997
2 10006 100.0000  12.0000 0000000   0.0000 192.0000 13.03091871    19
CTC1_L_00395002-04
1 10007U 24457NB  26075.70034722  .00000000  00000+0  00000-0 0  9994
2 10007 100.0000  12.0000 0000000   0.0000 282.0000 13.03091871    10
CTC1_L_00395003-01
1 10008U 26408PC  26075.70034722  .00000000  00000+0  00000-0 0  9993
2 10008 100.0000  24.0000 0000000   0.0000  24.0000 13.03091871    18
CTC1_L_00395003-02
1 10009U 24243UR  26075.70034722  .00000000  00000+0  00000-0 0  9999
2 10009 100.0000  24.0000 0000000   0.0000 114.0000 13.03091871    19
CTC1_L_00395003-03
1 10010U 25985XI  26075.70034722  .00000000  00000+0  00000-0 0  9995
2 10010 100.0000  24.0000 0000000   0.0000 204.0000 13.03091871    11
CTC1_L_00395003-04
1 10011U 24745HA  26075.70034722  .00000000  00000+0  00000-0 0  9999
2 10011 100.0000  24.0000 0000000   0.0000 294.0000 13.03091871    11
CTC1_L_00395004-01
1 10012U 25465SL  26075.70034722  .00000000  00000+0  00000-0 0  9990
2 10012 100.0000  36.0000 0000000   0.0000  36.0000 13.03091871    19
CTC1_L_00395004-02
1 10013U 23846AU  26075.70034722  .00000000  00000+0  00000-0 0  9992
2 10013 100.0000  36.0000 0000000   0.0000 126.0000 13.03091871    10
CTC1_L_00395004-03
1 10014U 26958BA  26075.70034722  .00000000  00000+0  00000-0 0  9990
2 10014 100.0000  36.0000 0000000   0.0000 216.0000 13.03091871    11
CTC1_L_00395004-04
1 10015U 26128JS  26075.70034722  .00000000  00000+0  00000-0 0  9990
2 10015 100.0000  36.0000 0000000   0.0000 306.0000 13.03091871    12
CTC1_L_00395005-01
1 10016U 23109GU  26075.70034722  .00000000  00000+0  00000-0 0  9997
2 10016 100.0000  48.0000 0000000   0.0000  48.0000 13.03091871    19
CTC1_L_00395005-02
1 10017U 25927CZ  26075.70034722  .00000000  00000+0  00000-0 0  9998
2 10017 100.0000  48.0000 0000000   0.0000 138.0000 13.03091871    10
CTC1_L_00395005-03
1 10018U 25161XO  26075.70034722  .00000000  00000+0  00000-0 0  9999
2 10018 100.0000  48.0000 0000000   0.0000 228.0000 13.03091871    11
CTC1_L_00395005-04
1 10019U 22487TK  26075.70034722  .00000000  00000+0  00000-0 0  9998
2 10019 100.0000  48.0000 0000000   0.0000 318.0000 13.03091871    12
CTC1_L_00395006-01
1 10020U 23244ZY  26075.70034722  .00000000  00000+0  00000-0 0  9992
2 10020 100.0000  60.0000 0000000   0.0000  60.0000 13.03091871    12
CTC1_L_00395006-02
1 10021U 23659QX  26075.70034722  .00000000  00000+0  00000-0 0  9993
2 10021 100.0000  60.0000 0000000   0.0000 150.0000 13.03091871    13
CTC1_L_00395006-03
1 10022U 25624XG  26075.70034722  .00000000  00000+0  00000-0 0  9998
2 10022 100.0000  60.0000 0000000   0.0000 240.0000 13.03091871    14
CTC1_L_00395006-04
1 10023U 26071RC  26075.70034722  .00000000  00000+0  00000-0 0  9996
2 10023 100.0000  60.0000 0000000   0.0000 330.0000 13.03091871    15
CTC1_L_00395007-01
1 10024U 26877BM  26075.70034722  .00000000  00000+0  00000-0 0  9991
2 10024 100.0000  72.0000 0000000   0.0000  72.0000 13.03091871    12
CTC1_L_00395007-02
1 10025U 22606BT  26075.70034722  .00000000  00000+0  00000-0 0  9998
2 10025 100.0000  72.0000 0000000   0.0000 162.0000 13.03091871    13
CTC1_L_00395007-03
1 10026U 24295OE  26075.70034722  .00000000  00000+0  00000-0 0  9995
2 10026 100.0000  72.0000 0000000   0.0000 252.0000 13.03091871    14
CTC1_L_00395007-04
1 10027U 26431ZH  26075.70034722  .00000000  00000+0  00000-0 0  9990
2 10027 100.0000  72.0000 0000000   0.0000 342.0000 13.03091871    15
CTC1_L_00395008-01
1 10028U 24320BU  26075.70034722  .00000000  00000+0  00000-0 0  9996
2 10028 100.0000  84.0000 0000000   0.0000  84.0000 13.03091871    12
CTC1_L_00395008-02
1 10029U 23332EU  26075.70034722  .00000000  00000+0  00000-0 0  9999
2 10029 100.0000  84.0000 0000000   0.0000 174.0000 13.03091871    13
CTC1_L_00395008-03
1 10030U 22446CN  26075.70034722  .00000000  00000+0  00000-0 0  9996
2 10030 100.0000  84.0000 0000000   0.0000 264.0000 13.03091871    15
CTC1_L_00395008-04
1 10031U 23064J   26075.70034722  .00000000  00000+0  00000-0 0  9994
2 10031 100.0000  84.0000 0000000   0.0000 354.0000 13.03091871    16
CTC1_L_00395009-01
1 10032U 26647SU  26075.70034722  .00000000  00000+0  00000-0 0  9995
2 10032 100.0000  96.0000 0000000   0.0000  96.0000 13.03091871    13
CTC1_L_00395009-02
1 10033U 26659FK  26075.70034722  .00000000  00000+0  00000-0 0  9999
2 10033 100.0000  96.0000 0000000   0.0000 186.0000 13.03091871    14
CTC1_L_00395009-03
1 10034U 24396ZT  26075.70034722  .00000000  00000+0  00000-0 0  9996
2 10034 100.0000  96.0000 0000000   0.0000 276.0000 13.03091871    15
CTC1_L_00395009-04
1 10035U 22295FJ  26075.70034722  .00000000  00000+0  00000-0 0  9993
2 10035 100.0000  96.0000 0000000   0.0000   6.0000 13.03091871    17
CTC1_L_00395010-01
1 10036U 24124WA  26075.70034722  .00000000  00000+0  00000-0 0  9997
2 10036 100.0000 108.0000 0000000   0.0000 108.0000 13.03091871    15
CTC1_L_00395010-02
1 10037U 26434KF  26075.70034722  .00000000  00000+0  00000-0 0  9994
2 10037 100.0000 108.0000 0000000   0.0000 198.0000 13.03091871    15
CTC1_L_00395010-03
1 10038U 22744FZ  26075.70034722  .00000000  00000+0  00000-0 0  9995
2 10038 100.0000 108.0000 0000000   0.0000 288.0000 13.03091871    16
CTC1_L_00395010-04
1 10039U 22992UJ  26075.70034722  .00000000  00000+0  00000-0 0  9991
2 10039 100.0000 108.0000 0000000   0.0000  18.0000 13.03091871    18
CTC1_L_00395011-01
1 10040U 24861BW  26075.70034722  .00000000  00000+0  00000-0 0  9990
2 10040 100.0000 120.0000 0000000   0.0000 120.0000 13.03091871    18
CTC1_L_00395011-02
1 10041U 25221CQ  26075.70034722  .00000000  00000+0  00000-0 0  9992
2 10041 100.0000 120.0000 0000000   0.0000 210.0000 13.03091871    19
CTC1_L_00395011-03
1 10042U 23975DE  26075.70034722  .00000000  00000+0  00000-0 0  9997
2 10042 100.0000 120.0000 0000000   0.0000 300.0000 13.03091871    10
CTC1_L_00395011-04
1 10043U 25397BF  26075.70034722  .00000000  00000+0  00000-0 0  9998
2 10043 100.0000 120.0000 0000000   0.0000  30.0000 13.03091871    11
CTC1_L_00395012-01
1 10044U 25873NU  26075.70034722  .00000000  00000+0  00000-0 0  9998
2 10044 100.0000 132.0000 0000000   0.0000 132.0000 13.03091871    18
CTC1_L_00395012-02
1 10045U 25226KV  26075.70034722  .00000000  00000+0  00000-0 0  9991
2 10045 100.0000 132.0000 0000000   0.0000 222.0000 13.03091871    19
CTC1_L_00395012-03
1 10046U 24872QU  26075.70034722  .00000000  00000+0  00000-0 0  9998
2 10046 100.0000 132.0000 0000000   0.0000 312.0000 13.03091871    10
CTC1_L_00395012-04
1 10047U 22464WO  26075.70034722  .00000000  00000+0  00000-0 0  9994
2 10047 100.0000 132.0000 0000000   0.0000  42.0000 13.03091871    11
CTC1_L_00395013-01
1 10048U 24543HC  26075.70034722  .00000000  00000+0  00000-0 0  9995
2 10048 100.0000 144.0000 0000000   0.0000 144.0000 13.03091871    18
CTC1_L_00395013-02
1 10049U 25451HT  26075.70034722  .00000000  00000+0  00000-0 0  9995
2 10049 100.0000 144.0000 0000000   0.0000 234.0000 13.03091871    19
CTC1_L_00395013-03
1 10050U 22559WG  26075.70034722  .00000000  00000+0  00000-0 0  9993
2 10050 100.0000 144.0000 0000000   0.0000 324.0000 13.03091871    11
CTC1_L_00395013-04
1 10051U 25614CB  26075.70034722  .00000000  00000+0  00000-0 0  9999
2 10051 100.0000 144.0000 0000000   0.0000  54.0000 13.03091871    12
CTC1_L_00395014-01
1 10052U 25102KX  26075.70034722  .00000000  00000+0  00000-0 0  9992
2 10052 100.0000 156.0000 0000000   0.0000 156.0000 13.03091871    19
CTC1_L_00395014-02
1 10053U 26612CS  26075.70034722  .00000000  00000+0  00000-0 0  9990
2 10053 100.0000 156.0000 0000000   0.0000 246.0000 13.03091871    10
CTC1_L_00395014-03
1 10054U 26487L   26075.70034722  .00000000  00000+0  00000-0 0  9991
2 10054 100.0000 156.0000 0000000   0.0000 336.0000 13.03091871    11
CTC1_L_00395014-04
1 10055U 22739VD  26075.70034722  .00000000  00000+0  00000-0 0  9998
2 10055 100.0000 156.0000 0000000   0.0000  66.0000 13.03091871    12
CTC1_L_00395015-01
1 10056U 26204GW  26075.70034722  .00000000  00000+0  00000-0 0  9990
2 10056 100.0000 168.0000 0000000   0.0000 168.0000 13.03091871    19
CTC1_L_00395015-02
1 10057U 23375BJ  26075.70034722  .00000000  00000+0  00000-0 0  9997
2 10057 100.0000 168.0000 0000000   0.0000 258.0000 13.03091871    10
CTC1_L_00395015-03
1 10058U 25220TM  26075.70034722  .00000000  00000+0  00000-0 0  9999
2 10058 100.0000 168.0000 0000000   0.0000 348.0000 13.03091871    11
CTC1_L_00395015-04
1 10059U 22725QD  26075.70034722  .00000000  00000+0  00000-0 0  9997
2 10059 100.0000 168.0000 0000000   0.0000  78.0000 13.03091871    12
CTC1_L_00395016-01
1 10060U 23964KF  26075.70034722  .00000000  00000+0  00000-0 0  9995
2 10060 100.0000 180.0000 0000000   0.0000 180.0000 13.03091871    12
CTC1_L_00395016-02
1 10061U 23183VI  26075.70034722  .00000000  00000+0  00000-0 0  9999
2 10061 100.0000 180.0000 0000000   0.0000 270.0000 13.03091871    13
